ATLAS CENTAUR 2         
1 00694U 63047A   25354.14940623  .00001567  00000+0  18164-3 0  9998
2 00694  30.3532 280.0699 0548808  99.4475 266.8561 14.11791646120379
THOR AGENA D R/B        
1 00733U 64002A   25353.97912932  .00000157  00000+0  73349-4 0  9997
2 00733  99.1216 357.9893 0033649 129.5058 230.9108 14.33963667226878
SL-3 R/B                
1 00877U 64053B   25354.03216711  .00000121  00000+0  47836-4 0  9995
2 00877  65.0750 204.7571 0074485 317.9481  41.5915 14.61281261255159
SL-8 R/B                
1 02802U 67045B   25353.64421105  .00000325  00000+0  97706-4 0  9997
2 02802  74.0103 137.5699 0063961 165.2040 195.1010 14.45544034 77456
SL-8 R/B                
1 03230U 68040B   25354.09751789  .00002825  00000+0  21400-3 0  9997
2 03230  74.0312 116.2422 0025889 316.5087  43.4058 15.02572952 78059
OAO 2                   
1 03597U 68110A   25354.03187155  .00000183  00000+0  54480-4 0  9995
2 03597  34.9949 349.9514 0006096 277.2107  82.7891 14.47248417  7550
ISIS 1                  
1 03669U 69009A   25353.87530712  .00000162  00000+0  11748-3 0  9991
2 03669  88.4489 164.0157 1706943 250.2750  90.6831 11.30357402339516
SERT 2                  
1 04327U 70009A   25353.37108273  .00000018  00000+0  80741-4 0  9993
2 04327  99.2659 295.9018 0005249  19.7387  92.2295 13.58718670768980
SL-3 R/B                
1 05118U 71028B   25354.14179738  .00023389  00000+0  34700-3 0  9993
2 05118  81.2370 149.7987 0019210 213.8829 146.1196 15.54851952976284
ASTEX 1                 
1 05560U 71089A   25353.94779962  .00000429  00000+0  10945-3 0  9998
2 05560  92.7146 125.9514 0015476   2.4724 357.6556 14.50650516850740
SL-8 R/B                
1 05730U 71119B   25354.07214948  .00009511  00000+0  49564-3 0  9994
2 05730  73.8888 324.3255 0558874 307.1164  48.0141 14.35903173644055
OAO 3 (COPERNICUS)      
1 06153U 72065A   25354.12576204  .00000272  00000+0  60331-4 0  9998
2 06153  35.0068  30.5915 0007088 232.8600 157.1724 14.59912316834560
