CCSDS_OMM_VERS = 2.0
CREATION_DATE  = 
ORIGINATOR     = 

OBJECT_NAME    = ATLAS CENTAUR 2
OBJECT_ID      = 1963-047A
CENTER_NAME    = EARTH
REF_FRAME      = TEME
TIME_SYSTEM    = UTC
MEAN_ELEMENT_THEORY = SGP/SGP4

EPOCH          = 2025-12-20T03:35:08.698272
MEAN_MOTION    = 14.11791646
ECCENTRICITY   = .05488086
INCLINATION    = 30.3532
RA_OF_ASC_NODE = 280.0699
ARG_OF_PERICENTER = 99.4475
MEAN_ANOMALY   = 266.8561

EPHEMERIS_TYPE = 0
CLASSIFICATION_TYPE = U
NORAD_CAT_ID   = 694
ELEMENT_SET_NO = 999
REV_AT_EPOCH   = 12037
BSTAR          = .18163772E-3
MEAN_MOTION_DOT = .1567E-4
MEAN_MOTION_DDOT = 0

CCSDS_OMM_VERS = 2.0
CREATION_DATE  = 
ORIGINATOR     = 

OBJECT_NAME    = THOR AGENA D R/B
OBJECT_ID      = 1964-002A
CENTER_NAME    = EARTH
REF_FRAME      = TEME
TIME_SYSTEM    = UTC
MEAN_ELEMENT_THEORY = SGP/SGP4

EPOCH          = 2025-12-19T23:29:56.773248
MEAN_MOTION    = 14.33963667
ECCENTRICITY   = .0033649
INCLINATION    = 99.1216
RA_OF_ASC_NODE = 357.9893
ARG_OF_PERICENTER = 129.5058
MEAN_ANOMALY   = 230.9108

EPHEMERIS_TYPE = 0
CLASSIFICATION_TYPE = U
NORAD_CAT_ID   = 733
ELEMENT_SET_NO = 999
REV_AT_EPOCH   = 22687
BSTAR          = .73349E-4
MEAN_MOTION_DOT = .157E-5
MEAN_MOTION_DDOT = 0

CCSDS_OMM_VERS = 2.0
CREATION_DATE  = 
ORIGINATOR     = 

OBJECT_NAME    = SL-3 R/B
OBJECT_ID      = 1964-053B
CENTER_NAME    = EARTH
REF_FRAME      = TEME
TIME_SYSTEM    = UTC
MEAN_ELEMENT_THEORY = SGP/SGP4

EPOCH          = 2025-12-20T00:46:19.238304
MEAN_MOTION    = 14.61281261
ECCENTRICITY   = .00744855
INCLINATION    = 65.0750
RA_OF_ASC_NODE = 204.7571
ARG_OF_PERICENTER = 317.9481
MEAN_ANOMALY   = 41.5915

EPHEMERIS_TYPE = 0
CLASSIFICATION_TYPE = U
NORAD_CAT_ID   = 877
ELEMENT_SET_NO = 999
REV_AT_EPOCH   = 25515
BSTAR          = .47835739E-4
MEAN_MOTION_DOT = .121E-5
MEAN_MOTION_DDOT = 0

CCSDS_OMM_VERS = 2.0
CREATION_DATE  = 
ORIGINATOR     = 

OBJECT_NAME    = SL-8 R/B
OBJECT_ID      = 1967-045B
CENTER_NAME    = EARTH
REF_FRAME      = TEME
TIME_SYSTEM    = UTC
MEAN_ELEMENT_THEORY = SGP/SGP4

EPOCH          = 2025-12-19T15:27:39.834720
MEAN_MOTION    = 14.45544034
ECCENTRICITY   = .0063961
INCLINATION    = 74.0103
RA_OF_ASC_NODE = 137.5699
ARG_OF_PERICENTER = 165.2040
MEAN_ANOMALY   = 195.1010

EPHEMERIS_TYPE = 0
CLASSIFICATION_TYPE = U
NORAD_CAT_ID   = 2802
ELEMENT_SET_NO = 999
REV_AT_EPOCH   = 7745
BSTAR          = .97706E-4
MEAN_MOTION_DOT = .325E-5
MEAN_MOTION_DDOT = 0

CCSDS_OMM_VERS = 2.0
CREATION_DATE  = 
ORIGINATOR     = 

OBJECT_NAME    = SL-8 R/B
OBJECT_ID      = 1968-040B
CENTER_NAME    = EARTH
REF_FRAME      = TEME
TIME_SYSTEM    = UTC
MEAN_ELEMENT_THEORY = SGP/SGP4

EPOCH          = 2025-12-20T02:20:25.545696
MEAN_MOTION    = 15.02572952
ECCENTRICITY   = .00258894
INCLINATION    = 74.0312
RA_OF_ASC_NODE = 116.2422
ARG_OF_PERICENTER = 316.5087
MEAN_ANOMALY   = 43.4058

EPHEMERIS_TYPE = 0
CLASSIFICATION_TYPE = U
NORAD_CAT_ID   = 3230
ELEMENT_SET_NO = 999
REV_AT_EPOCH   = 7805
BSTAR          = .21399772E-3
MEAN_MOTION_DOT = .2825E-4
MEAN_MOTION_DDOT = 0

CCSDS_OMM_VERS = 2.0
CREATION_DATE  = 
ORIGINATOR     = 

OBJECT_NAME    = OAO 2
OBJECT_ID      = 1968-110A
CENTER_NAME    = EARTH
REF_FRAME      = TEME
TIME_SYSTEM    = UTC
MEAN_ELEMENT_THEORY = SGP/SGP4

EPOCH          = 2025-12-20T00:45:53.701920
MEAN_MOTION    = 14.47248417
ECCENTRICITY   = .00060967
INCLINATION    = 34.9949
RA_OF_ASC_NODE = 349.9514
ARG_OF_PERICENTER = 277.2107
MEAN_ANOMALY   = 82.7891

EPHEMERIS_TYPE = 0
CLASSIFICATION_TYPE = U
NORAD_CAT_ID   = 3597
ELEMENT_SET_NO = 999
REV_AT_EPOCH   = 755
BSTAR          = .54479795E-4
MEAN_MOTION_DOT = .183E-5
MEAN_MOTION_DDOT = 0

CCSDS_OMM_VERS = 2.0
CREATION_DATE  = 
ORIGINATOR     = 

OBJECT_NAME    = ISIS 1
OBJECT_ID      = 1969-009A
CENTER_NAME    = EARTH
REF_FRAME      = TEME
TIME_SYSTEM    = UTC
MEAN_ELEMENT_THEORY = SGP/SGP4

EPOCH          = 2025-12-19T21:00:26.535168
MEAN_MOTION    = 11.30357402
ECCENTRICITY   = .1706943
INCLINATION    = 88.4489
RA_OF_ASC_NODE = 164.0157
ARG_OF_PERICENTER = 250.2750
MEAN_ANOMALY   = 90.6831

EPHEMERIS_TYPE = 0
CLASSIFICATION_TYPE = U
NORAD_CAT_ID   = 3669
ELEMENT_SET_NO = 999
REV_AT_EPOCH   = 33951
BSTAR          = .11748E-3
MEAN_MOTION_DOT = .162E-5
MEAN_MOTION_DDOT = 0

CCSDS_OMM_VERS = 2.0
CREATION_DATE  = 
ORIGINATOR     = 

OBJECT_NAME    = SERT 2
OBJECT_ID      = 1970-009A
CENTER_NAME    = EARTH
REF_FRAME      = TEME
TIME_SYSTEM    = UTC
MEAN_ELEMENT_THEORY = SGP/SGP4

EPOCH          = 2025-12-19T08:54:21.547872
MEAN_MOTION    = 13.58718670
ECCENTRICITY   = .0005249
INCLINATION    = 99.2659
RA_OF_ASC_NODE = 295.9018
ARG_OF_PERICENTER = 19.7387
MEAN_ANOMALY   = 92.2295

EPHEMERIS_TYPE = 0
CLASSIFICATION_TYPE = U
NORAD_CAT_ID   = 4327
ELEMENT_SET_NO = 999
REV_AT_EPOCH   = 76898
BSTAR          = .80741E-4
MEAN_MOTION_DOT = .18E-6
MEAN_MOTION_DDOT = 0

CCSDS_OMM_VERS = 2.0
CREATION_DATE  = 
ORIGINATOR     = 

OBJECT_NAME    = SL-3 R/B
OBJECT_ID      = 1971-028B
CENTER_NAME    = EARTH
REF_FRAME      = TEME
TIME_SYSTEM    = UTC
MEAN_ELEMENT_THEORY = SGP/SGP4

EPOCH          = 2025-12-20T03:24:11.293632
MEAN_MOTION    = 15.54851952
ECCENTRICITY   = .00192107
INCLINATION    = 81.2370
RA_OF_ASC_NODE = 149.7987
ARG_OF_PERICENTER = 213.8829
MEAN_ANOMALY   = 146.1196

EPHEMERIS_TYPE = 0
CLASSIFICATION_TYPE = U
NORAD_CAT_ID   = 5118
ELEMENT_SET_NO = 999
REV_AT_EPOCH   = 97628
BSTAR          = .34700264E-3
MEAN_MOTION_DOT = .23389E-3
MEAN_MOTION_DDOT = 0

CCSDS_OMM_VERS = 2.0
CREATION_DATE  = 
ORIGINATOR     = 

OBJECT_NAME    = ASTEX 1
OBJECT_ID      = 1971-089A
CENTER_NAME    = EARTH
REF_FRAME      = TEME
TIME_SYSTEM    = UTC
MEAN_ELEMENT_THEORY = SGP/SGP4

EPOCH          = 2025-12-19T22:44:49.887168
MEAN_MOTION    = 14.50650516
ECCENTRICITY   = .0015476
INCLINATION    = 92.7146
RA_OF_ASC_NODE = 125.9514
ARG_OF_PERICENTER = 2.4724
MEAN_ANOMALY   = 357.6556

EPHEMERIS_TYPE = 0
CLASSIFICATION_TYPE = U
NORAD_CAT_ID   = 5560
ELEMENT_SET_NO = 999
REV_AT_EPOCH   = 85074
BSTAR          = .10945E-3
MEAN_MOTION_DOT = .429E-5
MEAN_MOTION_DDOT = 0

CCSDS_OMM_VERS = 2.0
CREATION_DATE  = 
ORIGINATOR     = 

OBJECT_NAME    = SL-8 R/B
OBJECT_ID      = 1971-119B
CENTER_NAME    = EARTH
REF_FRAME      = TEME
TIME_SYSTEM    = UTC
MEAN_ELEMENT_THEORY = SGP/SGP4

EPOCH          = 2025-12-20T01:43:53.715072
MEAN_MOTION    = 14.35903173
ECCENTRICITY   = .05588743
INCLINATION    = 73.8888
RA_OF_ASC_NODE = 324.3255
ARG_OF_PERICENTER = 307.1164
MEAN_ANOMALY   = 48.0141

EPHEMERIS_TYPE = 0
CLASSIFICATION_TYPE = U
NORAD_CAT_ID   = 5730
ELEMENT_SET_NO = 999
REV_AT_EPOCH   = 64405
BSTAR          = .49564314E-3
MEAN_MOTION_DOT = .9511E-4
MEAN_MOTION_DDOT = 0

CCSDS_OMM_VERS = 2.0
CREATION_DATE  = 
ORIGINATOR     = 

OBJECT_NAME    = OAO 3 (COPERNICUS)
OBJECT_ID      = 1972-065A
CENTER_NAME    = EARTH
REF_FRAME      = TEME
TIME_SYSTEM    = UTC
MEAN_ELEMENT_THEORY = SGP/SGP4

EPOCH          = 2025-12-20T03:01:05.840256
MEAN_MOTION    = 14.59912316
ECCENTRICITY   = .0007088
INCLINATION    = 35.0068
RA_OF_ASC_NODE = 30.5915
ARG_OF_PERICENTER = 232.8600
MEAN_ANOMALY   = 157.1724

EPHEMERIS_TYPE = 0
CLASSIFICATION_TYPE = U
NORAD_CAT_ID   = 6153
ELEMENT_SET_NO = 999
REV_AT_EPOCH   = 83456
BSTAR          = .60331466E-4
MEAN_MOTION_DOT = .272E-5
MEAN_MOTION_DDOT = 0

